OBJECT_NAME,OBJECT_ID,EPOCH,MEAN_MOTION,ECCENTRICITY,INCLINATION,RA_OF_ASC_NODE,ARG_OF_PERICENTER,MEAN_ANOMALY,EPHEMERIS_TYPE,CLASSIFICATION_TYPE,NORAD_CAT_ID,ELEMENT_SET_NO,REV_AT_EPOCH,BSTAR,MEAN_MOTION_DOT,MEAN_MOTION_DDOT
SL-14 R/B,1990-018B,2026-06-25T20:31:08.465376,14.82221514,.0017709,82.5216,122.0064,95.5452,264.7783,0,U,20511,999,93860,.43632E-4,.373E-5,0
HST,1990-037B,2026-06-25T17:58:19.077888,15.30841303,.0001407,28.4731,22.0577,244.3264,115.7187,0,U,20580,999,78988,.24048E-3,.7613E-4,0
SL-16 R/B,1990-046B,2026-06-25T20:31:33.956832,14.15026685,.0012768,71.0001,70.7443,148.0626,212.1273,0,U,20625,999,86369,-.7547E-4,-.194E-5,0
COSMOS 2084,1990-055A,2026-06-25T19:48:34.373376,15.06149616,.0006035,62.7908,326.6060,294.1624,65.8846,0,U,20663,999,95260,.17381E-3,.2356E-4,0
SL-6 R/B(2),1990-055D,2026-06-25T16:37:19.926336,15.04027250,.004205,62.7811,246.4332,6.2794,353.8823,0,U,20666,999,95443,.11165E-3,.1372E-4,0
SL-8 R/B,1990-078B,2026-06-25T15:24:49.078080,14.92717152,.0348552,82.9013,154.0035,9.9612,350.8281,0,U,20775,999,82538,.87054E-3,.30807E-3,0
SL-8 R/B,1991-006B,2026-06-25T20:28:21.931104,13.77506610,.0023885,82.9426,89.5874,91.6871,333.2649,0,U,21088,999,77896,.29721E-4,.45E-6,0
OKEAN-3,1991-039A,2026-06-25T17:07:24.492288,15.05364840,.0013089,82.5166,232.1141,326.1751,33.8639,0,U,21397,999,88128,.17369E-3,.252E-4,0
COSMOS 2151,1991-042A,2026-06-25T20:42:09.326016,15.00460804,.0013539,82.4965,339.3075,57.8618,302.3917,0,U,21422,999,87941,.13406E-3,.1717E-4,0
SL-14 R/B,1991-042B,2026-06-25T20:43:10.181856,14.81907464,.0015521,82.4934,118.7598,243.3955,116.5669,0,U,21423,999,86909,.39467E-4,.336E-5,0
ERS-1,1991-050A,2026-06-25T15:28:24.494016,14.39521754,.0030829,98.7795,197.5495,240.9246,118.8853,0,U,21574,999,83126,.10106E-3,.27E-5,0
ARIANE 40 R/B,1991-050F,2026-06-25T17:12:15.313824,14.42961572,.0004456,98.1871,224.8014,102.9470,257.2219,0,U,21610,999,83457,.89743E-4,.259E-5,0
INTERCOSMOS 25,1991-086A,2026-06-25T16:41:48.938784,12.12210380,.148397,82.6042,244.6610,244.0201,100.0816,0,U,21819,999,50977,.1889E-3,.95E-5,0
SL-8 R/B,1992-008B,2026-06-25T13:44:26.922048,13.75979166,.0034364,82.9259,187.5527,190.8916,287.4974,0,U,21876,999,72425,.15289E-3,.164E-5,0
SL-8 R/B,1992-020B,2026-06-25T20:34:49.583712,13.75549750,.002911,82.9304,73.4175,358.7541,72.3068,0,U,21938,999,71600,.43958E-4,.58E-6,0
USA 81,1992-023A,2026-06-25T17:27:31.691232,14.32400284,.0002666,85.0071,69.0785,77.5787,282.5704,0,U,21949,999,11025,.46233E-4,.145E-5,0
COSMOS 2219,1992-076A,2026-06-25T06:06:45.203040,14.14104908,.0016995,71.0594,153.2063,30.5709,329.6400,0,U,22219,999,73358,.20246E-3,.339E-5,0
SL-16 R/B,1992-076B,2026-06-25T20:45:31.038912,14.16875707,.0014969,71.0013,320.5003,287.2799,185.7093,0,U,22220,999,73715,.45016E-5,-.39E-6,0
COSMOS 2221,1992-080A,2026-06-25T11:55:26.491296,14.96552978,.0014021,82.5030,175.8030,183.2148,176.8986,0,U,22236,999,79691,.1247E-3,.1447E-4,0
SL-16 R/B,1992-093B,2026-06-25T20:44:20.906304,14.15460540,.0003518,71.0204,137.1757,171.6293,188.4889,0,U,22285,999,72846,.992E-4,.146E-5,0
COSMOS 2228,1992-094A,2026-06-25T20:10:17.064192,14.97615317,.0016199,82.5180,133.7543,301.1888,58.7746,0,U,22286,999,79224,.16287E-3,.1934E-4,0
SL-16 R/B,1993-016B,2026-06-25T20:16:56.232192,14.15315805,.0009612,71.0088,348.0217,171.3798,188.7491,0,U,22566,999,71747,-.41495E-4,-.128E-5,0
COSMOS 2242,1993-024A,2026-06-25T16:05:04.217280,14.96927388,.001471,82.5181,163.4266,305.8298,54.1557,0,U,22626,999,79654,.14114E-3,.1649E-4,0
SL-16 R/B,1993-059B,2026-06-25T14:33:34.693920,14.17247154,.0015582,70.9890,143.5484,39.9421,320.2846,0,U,22803,999,69482,.22124E-4,-.3E-7,0
ARIANE 40 R/B,1993-061H,2026-06-25T19:03:43.365024,14.32911069,.0009933,98.4816,243.4724,329.9128,30.1485,0,U,22830,999,70958,.75062E-4,.162E-5,0
COSMOS 2278,1994-023A,2026-06-25T19:18:16.292736,14.14398496,.0010477,71.0552,308.8955,233.5172,126.4986,0,U,23087,999,66009,-.46878E-4,-.137E-5,0
SL-16 R/B,1994-023B,2026-06-25T12:28:06.210048,14.15027689,.000217,70.9986,204.4327,180.5063,179.6058,0,U,23088,999,66134,-.13444E-5,-.5E-6,0
SL-16 R/B,1994-074B,2026-06-25T16:18:01.412928,14.79508947,.0005533,97.6988,203.0463,219.2860,256.6365,0,U,23343,999,70321,.6014E-4,.4E-5,0
SL-16 R/B,1994-077B,2026-06-25T21:11:34.460736,14.15576846,.0003388,70.9826,124.8680,320.5534,39.5342,0,U,23405,999,63154,.11853E-3,.184E-5,0
ARIANE 40+ R/B,1995-021B,2026-06-25T19:40:50.324160,14.39837731,.0007006,98.4408,246.7702,167.9377,303.0026,0,U,23561,999,63480,.87784E-4,.232E-5,0
SL-16 R/B,1995-058B,2026-06-25T19:47:21.673824,14.15512019,.001432,71.0229,313.2231,308.5505,51.4334,0,U,23705,999,58315,.52604E-5,-.37E-6,0
