SL-14 R/B               
1 20511U 90018B   26176.85495909  .00000373  00000+0  43632-4 0  9992
2 20511  82.5216 122.0064 0017709  95.5452 264.7783 14.82221514938607
HST                     
1 20580U 90037B   26176.74883192  .00007613  00000+0  24048-3 0  9995
2 20580  28.4731  22.0577 0001407 244.3264 115.7187 15.30841303789880
SL-16 R/B               
1 20625U 90046B   26176.85525413 -.00000194  00000+0 -75470-4 0  9991
2 20625  71.0001  70.7443 0012768 148.0626 212.1273 14.15026685863690
COSMOS 2084             
1 20663U 90055A   26176.82539784  .00002356  00000+0  17381-3 0  9992
2 20663  62.7908 326.6060 0006035 294.1624  65.8846 15.06149616952604
SL-6 R/B(2)             
1 20666U 90055D   26176.69259174  .00001372  00000+0  11165-3 0  9993
2 20666  62.7811 246.4332 0042050   6.2794 353.8823 15.04027250954433
SL-8 R/B                
1 20775U 90078B   26176.64223470  .00030807  00000+0  87054-3 0  9999
2 20775  82.9013 154.0035 0348552   9.9612 350.8281 14.92717152825380
SL-8 R/B                
1 21088U 91006B   26176.85303161  .00000045  00000+0  29721-4 0  9997
2 21088  82.9426  89.5874 0023885  91.6871 333.2649 13.77506610778964
OKEAN-3                 
1 21397U 91039A   26176.71347792  .00002520  00000+0  17369-3 0  9993
2 21397  82.5166 232.1141 0013089 326.1751  33.8639 15.05364840881287
COSMOS 2151             
1 21422U 91042A   26176.86260794  .00001717  00000+0  13406-3 0  9993
2 21422  82.4965 339.3075 0013539  57.8618 302.3917 15.00460804879415
SL-14 R/B               
1 21423U 91042B   26176.86331229  .00000336  00000+0  39467-4 0  9998
2 21423  82.4934 118.7598 0015521 243.3955 116.5669 14.81907464869098
ERS-1                   
1 21574U 91050A   26176.64472794  .00000270  00000+0  10106-3 0  9998
2 21574  98.7795 197.5495 0030829 240.9246 118.8853 14.39521754831260
ARIANE 40 R/B           
1 21610U 91050F   26176.71684391  .00000259  00000+0  89743-4 0  9996
2 21610  98.1871 224.8014 0004456 102.9470 257.2219 14.42961572834575
INTERCOSMOS 25          
1 21819U 91086A   26176.69570531  .00000950  00000+0  18890-3 0  9995
2 21819  82.6042 244.6610 1483970 244.0201 100.0816 12.12210380509777
SL-8 R/B                
1 21876U 92008B   26176.57253382  .00000164  00000+0  15289-3 0  9998
2 21876  82.9259 187.5527 0034364 190.8916 287.4974 13.75979166724255
SL-8 R/B                
1 21938U 92020B   26176.85751833  .00000058  00000+0  43958-4 0  9993
2 21938  82.9304  73.4175 0029110 358.7541  72.3068 13.75549750716000
USA 81                  
1 21949U 92023A   26176.72745013  .00000145  00000+0  46233-4 0  9993
2 21949  85.0071  69.0785 0002666  77.5787 282.5704 14.32400284110259
COSMOS 2219             
1 22219U 92076A   26176.25468985  .00000339  00000+0  20246-3 0  9990
2 22219  71.0594 153.2063 0016995  30.5709 329.6400 14.14104908733580
SL-16 R/B               
1 22220U 92076B   26176.86494258 -.00000039  00000+0  45016-5 0  9993
2 22220  71.0013 320.5003 0014969 287.2799 185.7093 14.16875707737150
COSMOS 2221             
1 22236U 92080A   26176.49683439  .00001447  00000+0  12470-3 0  9994
2 22236  82.5030 175.8030 0014021 183.2148 176.8986 14.96552978796917
SL-16 R/B               
1 22285U 92093B   26176.86413086  .00000146  00000+0  99200-4 0  9994
2 22285  71.0204 137.1757 0003518 171.6293 188.4889 14.15460540728465
COSMOS 2228             
1 22286U 92094A   26176.84047528  .00001934  00000+0  16287-3 0  9997
2 22286  82.5180 133.7543 0016199 301.1888  58.7746 14.97615317792242
SL-16 R/B               
1 22566U 93016B   26176.84509528 -.00000128  00000+0 -41495-4 0  9992
2 22566  71.0088 348.0217 0009612 171.3798 188.7491 14.15315805717473
COSMOS 2242             
1 22626U 93024A   26176.67018770  .00001649  00000+0  14114-3 0  9997
2 22626  82.5181 163.4266 0014710 305.8298  54.1557 14.96927388796546
SL-16 R/B               
1 22803U 93059B   26176.60665155 -.00000003  00000+0  22124-4 0  9995
2 22803  70.9890 143.5484 0015582  39.9421 320.2846 14.17247154694828
ARIANE 40 R/B           
1 22830U 93061H   26176.79425191  .00000162  00000+0  75062-4 0  9996
2 22830  98.4816 243.4724 0009933 329.9128  30.1485 14.32911069709583
COSMOS 2278             
1 23087U 94023A   26176.80435524 -.00000137  00000+0 -46878-4 0  9990
2 23087  71.0552 308.8955 0010477 233.5172 126.4986 14.14398496660098
SL-16 R/B               
1 23088U 94023B   26176.51951632 -.00000050  00000+0 -13444-5 0  9990
2 23088  70.9986 204.4327 0002170 180.5063 179.6058 14.15027689661346
SL-16 R/B               
1 23343U 94074B   26176.67918302  .00000400  00000+0  60140-4 0  9995
2 23343  97.6988 203.0463 0005533 219.2860 256.6365 14.79508947703216
SL-16 R/B               
1 23405U 94077B   26176.88303774  .00000184  00000+0  11853-3 0  9996
2 23405  70.9826 124.8680 0003388 320.5534  39.5342 14.15576846631543
ARIANE 40+ R/B          
1 23561U 95021B   26176.82002690  .00000232  00000+0  87784-4 0  9997
2 23561  98.4408 246.7702 0007006 167.9377 303.0026 14.39837731634804
SL-16 R/B               
1 23705U 95058B   26176.82455641 -.00000037  00000+0  52604-5 0  9993
2 23705  71.0229 313.2231 0014320 308.5505  51.4334 14.15512019583152
